{
  "type": "FeatureCollection",
  "features": [
    {
      "type": "Feature",
      "properties": {
        "norad_id": 30289,
        "name": "FENGYUN 1C DEB",
        "group": "fengyun-1c-debris",
        "lat": -44.033783039929226,
        "lon": 83.98819698042004,
        "alt_km": 791.8679121039595,
        "timestamp": "2025-12-04T21:36:16.148170+00:00",
        "meta_object_name": "FENGYUN 1C DEB",
        "meta_object_id": "1999-025ZA",
        "meta_epoch": "2025-12-04T12:18:52.705728",
        "meta_mean_motion": 14.2570827,
        "meta_eccentricity": 0.00370374,
        "meta_inclination": 98.928,
        "meta_ra_of_asc_node": 74.8523,
        "meta_arg_of_pericenter": 355.0196,
        "meta_mean_anomaly": 135.0375,
        "meta_ephemeris_type": 0,
        "meta_classification_type": "U",
        "meta_norad_cat_id": 30289,
        "meta_element_set_no": 999,
        "meta_rev_at_epoch": 96964,
        "meta_bstar": 0.0042355398,
        "meta_mean_motion_dot": 0.0001009,
        "meta_mean_motion_ddot": 0,
        "tle_line1": "1 30289U 99025ZA  25338.51311002  .00010090  00000+0  42355-2 0  9991",
        "tle_line2": "2 30289  98.9280  74.8523 0037037 355.0196 135.0375 14.25708270969642"
      },
      "geometry": {
        "type": "Point",
        "coordinates": [
          83.98819698042004,
          -44.033783039929226
        ]
      }
    },
    {
      "type": "Feature",
      "properties": {
        "norad_id": 30290,
        "name": "FENGYUN 1C DEB",
        "group": "fengyun-1c-debris",
        "lat": 59.98669476162698,
        "lon": -80.78002422623369,
        "alt_km": 632.8980696895078,
        "timestamp": "2025-12-04T21:36:16.148180+00:00",
        "meta_object_name": "FENGYUN 1C DEB",
        "meta_object_id": "1999-025ZB",
        "meta_epoch": "2025-12-04T05:07:20.569728",
        "meta_mean_motion": 14.74002082,
        "meta_eccentricity": 0.00166572,
        "meta_inclination": 102.624,
        "meta_ra_of_asc_node": 75.3273,
        "meta_arg_of_pericenter": 79.8452,
        "meta_mean_anomaly": 354.9433,
        "meta_ephemeris_type": 0,
        "meta_classification_type": "U",
        "meta_norad_cat_id": 30290,
        "meta_element_set_no": 999,
        "meta_rev_at_epoch": 97753,
        "meta_bstar": 0.01351858,
        "meta_mean_motion_dot": 0.00090214,
        "meta_mean_motion_ddot": 0,
        "tle_line1": "1 30290U 99025ZB  25338.21343252  .00090214  00000+0  13519-1 0  9997",
        "tle_line2": "2 30290 102.6240  75.3273 0016657  79.8452 354.9433 14.74002082977538"
      },
      "geometry": {
        "type": "Point",
        "coordinates": [
          -80.78002422623369,
          59.98669476162698
        ]
      }
    },
    {
      "type": "Feature",
      "properties": {
        "norad_id": 30291,
        "name": "FENGYUN 1C DEB",
        "group": "fengyun-1c-debris",
        "lat": 38.485914260355564,
        "lon": -137.05820994179285,
        "alt_km": 627.2994878231675,
        "timestamp": "2025-12-04T21:36:16.148190+00:00",
        "meta_object_name": "FENGYUN 1C DEB",
        "meta_object_id": "1999-025ZC",
        "meta_epoch": "2025-12-04T15:06:28.602144",
        "meta_mean_motion": 14.54900294,
        "meta_eccentricity": 0.01124663,
        "meta_inclination": 97.2338,
        "meta_ra_of_asc_node": 228.5029,
        "meta_arg_of_pericenter": 44.2496,
        "meta_mean_anomaly": 17.8675,
        "meta_ephemeris_type": 0,
        "meta_classification_type": "U",
        "meta_norad_cat_id": 30291,
        "meta_element_set_no": 999,
        "meta_rev_at_epoch": 97590,
        "meta_bstar": 0.0066923947,
        "meta_mean_motion_dot": 0.00031389,
        "meta_mean_motion_ddot": 0,
        "tle_line1": "1 30291U 99025ZC  25338.62949771  .00031389  00000+0  66924-2 0  9998",
        "tle_line2": "2 30291  97.2338 228.5029 0112466  44.2496  17.8675 14.54900294975908"
      },
      "geometry": {
        "type": "Point",
        "coordinates": [
          -137.05820994179285,
          38.485914260355564
        ]
      }
    },
    {
      "type": "Feature",
      "properties": {
        "norad_id": 30293,
        "name": "FENGYUN 1C DEB",
        "group": "fengyun-1c-debris",
        "lat": 70.65187205215933,
        "lon": 16.739925332180725,
        "alt_km": 675.6560172917389,
        "timestamp": "2025-12-04T21:36:16.148201+00:00",
        "meta_object_name": "FENGYUN 1C DEB",
        "meta_object_id": "1999-025ZE",
        "meta_epoch": "2025-12-04T06:59:26.636928",
        "meta_mean_motion": 14.48861202,
        "meta_eccentricity": 0.00765701,
        "meta_inclination": 99.2545,
        "meta_ra_of_asc_node": 168.4054,
        "meta_arg_of_pericenter": 139.7502,
        "meta_mean_anomaly": 33.5327,
        "meta_ephemeris_type": 0,
        "meta_classification_type": "U",
        "meta_norad_cat_id": 30293,
        "meta_element_set_no": 999,
        "meta_rev_at_epoch": 98854,
        "meta_bstar": 0.001930889,
        "meta_mean_motion_dot": 7.53e-05,
        "meta_mean_motion_ddot": 0,
        "tle_line1": "1 30293U 99025ZE  25338.29128052  .00007530  00000+0  19309-2 0  9990",
        "tle_line2": "2 30293  99.2545 168.4054 0076570 139.7502  33.5327 14.48861202988546"
      },
      "geometry": {
        "type": "Point",
        "coordinates": [
          16.739925332180725,
          70.65187205215933
        ]
      }
    },
    {
      "type": "Feature",
      "properties": {
        "norad_id": 30294,
        "name": "FENGYUN 1C DEB",
        "group": "fengyun-1c-debris",
        "lat": 64.37983329970949,
        "lon": -50.456008312813246,
        "alt_km": 772.6838680970441,
        "timestamp": "2025-12-04T21:36:16.148211+00:00",
        "meta_object_name": "FENGYUN 1C DEB",
        "meta_object_id": "1999-025ZF",
        "meta_epoch": "2025-12-04T10:19:12.417312",
        "meta_mean_motion": 14.349091,
        "meta_eccentricity": 0.01980596,
        "meta_inclination": 98.3553,
        "meta_ra_of_asc_node": 326.9349,
        "meta_arg_of_pericenter": 334.5416,
        "meta_mean_anomaly": 181.5227,
        "meta_ephemeris_type": 0,
        "meta_classification_type": "U",
        "meta_norad_cat_id": 30294,
        "meta_element_set_no": 999,
        "meta_rev_at_epoch": 98417,
        "meta_bstar": 0.00095033918,
        "meta_mean_motion_dot": 3.324e-05,
        "meta_mean_motion_ddot": 0,
        "tle_line1": "1 30294U 99025ZF  25338.43000483  .00003324  00000+0  95034-3 0  9991",
        "tle_line2": "2 30294  98.3553 326.9349 0198059 334.5416 181.5227 14.34909100984173"
      },
      "geometry": {
        "type": "Point",
        "coordinates": [
          -50.456008312813246,
          64.37983329970949
        ]
      }
    },
    {
      "type": "Feature",
      "properties": {
        "norad_id": 30295,
        "name": "FENGYUN 1C DEB",
        "group": "fengyun-1c-debris",
        "lat": -72.92936059527298,
        "lon": 30.7650796007431,
        "alt_km": 883.5939087892866,
        "timestamp": "2025-12-04T21:36:16.148221+00:00",
        "meta_object_name": "FENGYUN 1C DEB",
        "meta_object_id": "1999-025ZG",
        "meta_epoch": "2025-12-03T07:48:29.820096",
        "meta_mean_motion": 14.25031927,
        "meta_eccentricity": 0.0094503,
        "meta_inclination": 98.5091,
        "meta_ra_of_asc_node": 0.0599,
        "meta_arg_of_pericenter": 109.6743,
        "meta_mean_anomaly": 20.6828,
        "meta_ephemeris_type": 0,
        "meta_classification_type": "U",
        "meta_norad_cat_id": 30295,
        "meta_element_set_no": 999,
        "meta_rev_at_epoch": 98042,
        "meta_bstar": 0.00023455,
        "meta_mean_motion_dot": 5.34e-06,
        "meta_mean_motion_ddot": 0,
        "tle_line1": "1 30295U 99025ZG  25337.32534514  .00000534  00000+0  23455-3 0  9994",
        "tle_line2": "2 30295  98.5091   0.0599 0094503 109.6743  20.6828 14.25031927980420"
      },
      "geometry": {
        "type": "Point",
        "coordinates": [
          30.7650796007431,
          -72.92936059527298
        ]
      }
    },
    {
      "type": "Feature",
      "properties": {
        "norad_id": 30297,
        "name": "FENGYUN 1C DEB",
        "group": "fengyun-1c-debris",
        "lat": -41.167920181044515,
        "lon": -61.75997401670566,
        "alt_km": 1099.4263984919444,
        "timestamp": "2025-12-04T21:36:16.148232+00:00",
        "meta_object_name": "FENGYUN 1C DEB",
        "meta_object_id": "1999-025ZJ",
        "meta_epoch": "2025-12-04T10:34:26.588064",
        "meta_mean_motion": 14.21672293,
        "meta_eccentricity": 0.03795599,
        "meta_inclination": 98.8107,
        "meta_ra_of_asc_node": 289.9852,
        "meta_arg_of_pericenter": 139.5845,
        "meta_mean_anomaly": 347.8123,
        "meta_ephemeris_type": 0,
        "meta_classification_type": "U",
        "meta_norad_cat_id": 30297,
        "meta_element_set_no": 999,
        "meta_rev_at_epoch": 95034,
        "meta_bstar": 0.0024492493,
        "meta_mean_motion_dot": 0.00011231,
        "meta_mean_motion_ddot": 0,
        "tle_line1": "1 30297U 99025ZJ  25338.44058551  .00011231  00000+0  24492-2 0  9999",
        "tle_line2": "2 30297  98.8107 289.9852 0379559 139.5845 347.8123 14.21672293950348"
      },
      "geometry": {
        "type": "Point",
        "coordinates": [
          -61.75997401670566,
          -41.167920181044515
        ]
      }
    }
  ]
}